NORAD_CAT_ID,OBJECT_NAME,OBJECT_TYPE,EPOCH,MEAN_MOTION,ECCENTRICITY,INCLINATION,RA_OF_ASC_NODE,ARG_OF_PERICENTER,MEAN_ANOMALY,BSTAR,MEAN_MOTION_DOT,MEAN_MOTION_DDOT,TLE_LINE0,TLE_LINE1,TLE_LINE2,SEMIMAJOR_AXIS,PERIOD,APOGEE,PERIGEE,DECAYED
52987.0,STARLINK-4259,PAYLOAD,2024-08-11 06:10:28,15.08848577,0.0001512,53.2162,167.3343,102.8748,257.2414,0.00019963,2.891e-05,0.0,0 STARLINK-4259,1 52987U 22076B   24224.25727516  .00002891  00000-0  19963-3 0  9998,2 52987  53.2162 167.3343 0001512 102.8748 257.2414 15.08848577116307,6917.854,95.437,540.765,538.673,0.0
52987.0,STARLINK-4259,PAYLOAD,2024-08-11 20:28:57,15.08835315,0.0001405,53.2163,164.6614,100.6953,259.4198,0.00016669,2.366e-05,0.0,0 STARLINK-4259,1 52987U 22076B   24224.85344320  .00002366  00000-0  16669-3 0  9999,2 52987  53.2163 164.6614 0001405 100.6953 259.4198 15.08835315116392,6917.895,95.438,540.732,538.788,0.0
52987.0,STARLINK-4259,PAYLOAD,2024-08-12 12:22:46,15.08878736,6.92e-05,53.2171,161.6892,115.7096,244.3968,0.00059041,9.131e-05,0.0,0 STARLINK-4259,1 52987U 22076B   24225.51581647  .00009131  00000-0  59041-3 0  9996,2 52987  53.2171 161.6892 0000692 115.7096 244.3968 15.08878736116491,6917.762,95.435,540.106,539.148,0.0
52987.0,STARLINK-4259,PAYLOAD,2024-08-12 20:19:44,15.08827083,8.44e-05,53.2156,160.1989,93.1901,266.9187,-0.00025247,-4.302e-05,0.0,0 STARLINK-4259,1 52987U 22076B   24225.84704066 -.00004302  00000-0 -25247-3 0  9992,2 52987  53.2156 160.1989 0000844  93.1901 266.9187 15.08827083116546,6917.92,95.438,540.369,539.201,0.0
52987.0,STARLINK-4259,PAYLOAD,2024-08-13 12:13:37,15.08787725,0.0001397,53.2151,157.227,87.3651,272.7501,-0.00082696,-0.00013406,0.0,0 STARLINK-4259,1 52987U 22076B   24226.50946637 -.00013406  00000-0 -82696-3 0  9994,2 52987  53.2151 157.2270 0001397  87.3651 272.7501 15.08787725116646,6918.04,95.441,540.872,538.939,0.0
52987.0,STARLINK-4259,PAYLOAD,2024-08-13 20:10:33,15.08807164,0.0001384,53.2152,155.7408,87.2762,272.8388,-0.00017492,-3.068e-05,0.0,0 STARLINK-4259,1 52987U 22076B   24226.84066851 -.00003068  00000-0 -17492-3 0  9997,2 52987  53.2152 155.7408 0001384  87.2762 272.8388 15.08807164116690,6917.981,95.44,540.803,538.888,0.0
52987.0,STARLINK-4259,PAYLOAD,2024-08-14 00:56:43,15.08818607,0.0001176,53.2135,154.8475,80.1111,280.0014,0.00015927,2.246e-05,0.0,0 STARLINK-4259,1 52987U 22076B   24227.03938712  .00002246  00000-0  15927-3 0  9999,2 52987  53.2135 154.8475 0001176  80.1111 280.0014 15.08818607116729,6917.946,95.439,540.624,538.997,0.0
52987.0,STARLINK-4259,PAYLOAD,2024-08-14 12:04:25,15.08842793,0.0001418,53.215,152.7678,93.6315,266.4839,0.0015825,0.00024989,0.0,0 STARLINK-4259,1 52987U 22076B   24227.50307454  .00024989  00000-0  15825-2 0  9998,2 52987  53.2150 152.7678 0001418  93.6315 266.4839 15.08842793116324,6917.872,95.437,540.718,538.756,0.0
52987.0,STARLINK-4259,PAYLOAD,2024-08-15 11:55:10,15.08902517,0.0001527,53.2135,148.3036,67.6998,292.4156,0.0018675,0.0002961,0.0,0 STARLINK-4259,1 52987U 22076B   24228.49665197  .00029610  00000-0  18675-2 0  9990,2 52987  53.2135 148.3036 0001527  67.6998 292.4156 15.08902517116473,6917.689,95.434,540.611,538.498,0.0
52987.0,STARLINK-4259,PAYLOAD,2024-08-16 02:13:39,15.08838701,0.0001275,53.2152,145.6319,76.7569,283.3565,0.0011801,0.00018542,0.0,0 STARLINK-4259,1 52987U 22076B   24229.09281590  .00018542  00000-0  11801-2 0  9994,2 52987  53.2152 145.6319 0001275  76.7569 283.3565 15.08838701117030,6917.884,95.438,540.631,538.867,0.0
52987.0,STARLINK-4259,PAYLOAD,2024-08-17 00:29:03,15.08857213,0.0001343,53.2143,141.4677,79.3724,280.7419,0.00096732,0.00015148,0.0,0 STARLINK-4259,1 52987U 22076B   24230.02017378  .00015148  00000-0  96732-3 0  9996,2 52987  53.2143 141.4677 0001343  79.3724 280.7419 15.08857213117172,6917.828,95.436,540.622,538.764,0.0
52987.0,STARLINK-4259,PAYLOAD,2024-08-18 00:19:49,15.08855274,0.0001602,53.2152,137.005,138.2076,221.9039,0.00039747,6.046e-05,0.0,0 STARLINK-4259,1 52987U 22076B   24231.01376538  .00006046  00000-0  39747-3 0  9992,2 52987  53.2152 137.0050 0001602 138.2076 221.9039 15.08855274117328,6917.834,95.437,540.807,538.59,0.0
52987.0,STARLINK-4259,PAYLOAD,2024-08-18 20:59:51,15.08836363,0.0001488,53.216,133.1519,100.0455,260.0705,0.00029002,4.33e-05,0.0,0 STARLINK-4259,1 52987U 22076B   24231.87489606  .00004330  00000-0  29002-3 0  9994,2 52987  53.2160 133.1519 0001488 100.0455 260.0705 15.08836363117450,6917.892,95.438,540.786,538.727,0.0
52987.0,STARLINK-4259,PAYLOAD,2024-08-18 22:35:14,15.08833041,0.0001368,53.2166,132.853,107.5325,252.5817,0.0002036,2.953e-05,0.0,0 STARLINK-4259,1 52987U 22076B   24231.94113654  .00002953  00000-0  20360-3 0  9996,2 52987  53.2166 132.8530 0001368 107.5325 252.5817 15.08833041116998,6917.902,95.438,540.713,538.82,0.0
52987.0,STARLINK-4259,PAYLOAD,2024-08-19 00:10:37,15.08833857,0.0001288,53.2162,132.548,90.8562,269.2578,-8.5245e-05,-1.644e-05,0.0,0 STARLINK-4259,1 52987U 22076B   24232.00737606 -.00001644  00000-0 -85245-4 0  9995,2 52987  53.2162 132.5480 0001288  90.8562 269.2578 15.08833857117000,6917.899,95.438,540.655,538.873,0.0
52987.0,STARLINK-4259,PAYLOAD,2024-08-19 20:50:38,15.08832465,0.0001264,53.216,128.6825,89.7695,270.3442,9.4552e-05,1.217e-05,0.0,0 STARLINK-4259,1 52987U 22076B   24232.86850143  .00001217  00000-0  94552-4 0  9996,2 52987  53.2160 128.6825 0001264  89.7695 270.3442 15.08832465117608,6917.903,95.438,540.643,538.894,0.0
52987.0,STARLINK-4259,PAYLOAD,2024-08-19 22:26:01,15.0883265,0.0001263,53.216,128.3852,88.1204,271.9933,9.0834e-05,1.158e-05,0.0,0 STARLINK-4259,1 52987U 22076B   24232.93474163  .00001158  00000-0  90834-4 0  9991,2 52987  53.2160 128.3852 0001263  88.1204 271.9933 15.08832650117140,6917.903,95.438,540.642,538.894,0.0
52987.0,STARLINK-4259,PAYLOAD,2024-08-21 03:02:57,15.08844458,0.0001247,53.2155,123.0302,88.6318,271.4817,0.00021658,3.161e-05,0.0,0 STARLINK-4259,1 52987U 22076B   24234.12705750  .00003161  00000-0  21658-3 0  9996,2 52987  53.2155 123.0302 0001247  88.6318 271.4817 15.08844458117795,6917.867,95.437,540.594,538.869,0.0
52987.0,STARLINK-4259,PAYLOAD,2024-08-21 20:32:12,15.08838206,0.0001362,53.2153,119.7566,100.173,259.9416,5.1735e-05,5.36e-06,0.0,0 STARLINK-4259,1 52987U 22076B   24234.85570085  .00000536  00000-0  51735-4 0  9990,2 52987  53.2153 119.7566 0001362 100.1730 259.9416 15.08838206117434,6917.886,95.438,540.693,538.809,0.0
52987.0,STARLINK-4259,PAYLOAD,2024-08-21 22:07:35,15.08836138,0.0001322,53.2157,119.4596,99.0119,261.1023,1.7045e-05,-1.7e-07,0.0,0 STARLINK-4259,1 52987U 22076B   24234.92194193 -.00000017  00000-0  17045-4 0  9991,2 52987  53.2157 119.4596 0001322  99.0119 261.1023 15.08836138117915,6917.892,95.438,540.672,538.843,0.0
